start=new Date('2022-06-08T00:00:00.000Z').valueOf();
sats=[{"MEAN_ANOMALY":"299.0205","BSTAR":"0.00006925600000","CLASSIFICATION_TYPE":"U","MEAN_MOTION_DOT":"0.00000750","REV_AT_EPOCH":"10039","APOAPSIS":"548.338","MEAN_MOTION":"15.06403508","REF_FRAME":"TEME","COUNTRY_CODE":"US","PERIAPSIS":"546.068","CENTER_NAME":"EARTH","ARG_OF_PERICENTER":"61.0948","TLE_LINE1":"1 46127U 20057L   22158.85712161  .00000750  00000-0  69256-4 0  9997","PERIOD":"95.592","NORAD_CAT_ID":"46127","DECAY_DATE":null,"INCLINATION":"53.0552","TLE_LINE2":"2 46127  53.0552 330.5211 0001639  61.0948 299.0205 15.06403508100396","LAUNCH_DATE":"2020-08-18","EPHEMERIS_TYPE":"0","SEMIMAJOR_AXIS":"6925.338","RCS_SIZE":"LARGE","OBJECT_ID":"2020-057L","MEAN_MOTION_DDOT":"0.0000000000000","ELEMENT_SET_NO":"999","ECCENTRICITY":"0.00016390","TIME_SYSTEM":"UTC","RA_OF_ASC_NODE":"330.5211","MEAN_ELEMENT_THEORY":"SGP4","EPOCH":"2022-06-07T20:34:15.307104","SITE":"AFETR","OBJECT_TYPE":"PAYLOAD","OBJECT_NAME":"STARLINK-1621","GP_ID":"205572658","FILE":"3485102"},{"MEAN_ANOMALY":"281.4888","BSTAR":"0.00033815000000","CLASSIFICATION_TYPE":"U","REV_AT_EPOCH":"10000","MEAN_MOTION_DOT":"0.00004760","APOAPSIS":"548.157","PERIAPSIS":"546.236","MEAN_MOTION":"15.06405454","REF_FRAME":"TEME","COUNTRY_CODE":"US","PERIOD":"95.592","NORAD_CAT_ID":"46128","DECAY_DATE":null,"CENTER_NAME":"EARTH","TLE_LINE1":"1 46128U 20057M   22158.81842046  .00004760  00000-0  33815-3 0  9996","ARG_OF_PERICENTER":"78.6257","TLE_LINE2":"2 46128  53.0527 310.6973 0001387  78.6257 281.4888 15.06405454100002","LAUNCH_DATE":"2020-08-18","SEMIMAJOR_AXIS":"6925.332","EPHEMERIS_TYPE":"0","INCLINATION":"53.0527","OBJECT_ID":"2020-057M","MEAN_MOTION_DDOT":"0.0000000000000","RCS_SIZE":"LARGE","TIME_SYSTEM":"UTC","ECCENTRICITY":"0.00013870","ELEMENT_SET_NO":"999","SITE":"AFETR","OBJECT_TYPE":"PAYLOAD","OBJECT_NAME":"STARLINK-1622","RA_OF_ASC_NODE":"310.6973","MEAN_ELEMENT_THEORY":"SGP4","EPOCH":"2022-06-07T19:38:31.527744","FILE":"3485136","GP_ID":"205592987"},{"CENTER_NAME":"EARTH","ARG_OF_PERICENTER":"75.4614","TLE_LINE1":"1 46129U 20057N   22158.85896914  .00000126  00000-0  27341-4 0  9994","PERIOD":"95.592","NORAD_CAT_ID":"46129","DECAY_DATE":null,"INCLINATION":"53.0549","TLE_LINE2":"2 46129  53.0549 310.5312 0001330  75.4614 284.6522 15.06401484100013","LAUNCH_DATE":"2020-08-18","SEMIMAJOR_AXIS":"6925.344","EPHEMERIS_TYPE":"0","MEAN_ANOMALY":"284.6522","BSTAR":"0.00002734100000","CLASSIFICATION_TYPE":"U","REV_AT_EPOCH":"10001","MEAN_MOTION_DOT":"0.00000126","APOAPSIS":"548.130","MEAN_MOTION":"15.06401484","REF_FRAME":"TEME","COUNTRY_CODE":"US","PERIAPSIS":"546.288","RA_OF_ASC_NODE":"310.5312","MEAN_ELEMENT_THEORY":"SGP4","EPOCH":"2022-06-07T20:36:54.933696","SITE":"AFETR","OBJECT_TYPE":"PAYLOAD","OBJECT_NAME":"STARLINK-1623","GP_ID":"205593733","FILE":"3485136","RCS_SIZE":"LARGE","OBJECT_ID":"2020-057N","MEAN_MOTION_DDOT":"0.0000000000000","ECCENTRICITY":"0.00013300","ELEMENT_SET_NO":"999","TIME_SYSTEM":"UTC"},{"REV_AT_EPOCH":"10125","MEAN_MOTION_DOT":"0.00001048","BSTAR":"0.00008919700000","MEAN_ANOMALY":"298.9538","CLASSIFICATION_TYPE":"U","APOAPSIS":"548.231","PERIAPSIS":"546.149","MEAN_MOTION":"15.06407691","COUNTRY_CODE":"US","REF_FRAME":"TEME","NORAD_CAT_ID":"46130","PERIOD":"95.592","DECAY_DATE":null,"CENTER_NAME":"EARTH","ARG_OF_PERICENTER":"61.1601","TLE_LINE1":"1 46130U 20057P   22158.82578675  .00001048  00000-0  89197-4 0  9995","EPHEMERIS_TYPE":"0","LAUNCH_DATE":"2020-08-18","SEMIMAJOR_AXIS":"6925.325","TLE_LINE2":"2 46130  53.0557 310.6605 0001503  61.1601 298.9538 15.06407691101258","INCLINATION":"53.0557","OBJECT_ID":"2020-057P","MEAN_MOTION_DDOT":"0.0000000000000","RCS_SIZE":"LARGE","TIME_SYSTEM":"UTC","ELEMENT_SET_NO":"999","ECCENTRICITY":"0.00015030","OBJECT_NAME":"STARLINK-1624","OBJECT_TYPE":"PAYLOAD","SITE":"AFETR","MEAN_ELEMENT_THEORY":"SGP4","RA_OF_ASC_NODE":"310.6605","EPOCH":"2022-06-07T19:49:07.975200","FILE":"3485136","GP_ID":"205592488"},{"INCLINATION":"53.0547","TLE_LINE2":"2 46131  53.0547 330.6089 0001456  76.8705 283.2446 15.06398145100988","LAUNCH_DATE":"2020-08-18","SEMIMAJOR_AXIS":"6925.354","EPHEMERIS_TYPE":"0","CENTER_NAME":"EARTH","ARG_OF_PERICENTER":"76.8705","TLE_LINE1":"1 46131U 20057Q   22158.83869337  .00001078  00000-0  91266-4 0  9998","PERIOD":"95.592","NORAD_CAT_ID":"46131","DECAY_DATE":null,"MEAN_MOTION":"15.06398145","REF_FRAME":"TEME","COUNTRY_CODE":"US","PERIAPSIS":"546.211","MEAN_ANOMALY":"283.2446","BSTAR":"0.00009126600000","CLASSIFICATION_TYPE":"U","MEAN_MOTION_DOT":"0.00001078","REV_AT_EPOCH":"10098","APOAPSIS":"548.228","GP_ID":"205592738","FILE":"3485136","RA_OF_ASC_NODE":"330.6089","MEAN_ELEMENT_THEORY":"SGP4","EPOCH":"2022-06-07T20:07:43.107168","SITE":"AFETR","OBJECT_TYPE":"PAYLOAD","OBJECT_NAME":"STARLINK-1625","ECCENTRICITY":"0.00014560","ELEMENT_SET_NO":"999","TIME_SYSTEM":"UTC","RCS_SIZE":"LARGE","OBJECT_ID":"2020-057Q","MEAN_MOTION_DDOT":"0.0000000000000"},{"EPOCH":"2022-06-07T19:27:54.542016","RA_OF_ASC_NODE":"350.7431","MEAN_ELEMENT_THEORY":"SGP4","SITE":"AFETR","OBJECT_TYPE":"PAYLOAD","OBJECT_NAME":"STARLINK-1630","GP_ID":"205593488","FILE":"3485136","RCS_SIZE":"LARGE","MEAN_MOTION_DDOT":"0.0000000000000","OBJECT_ID":"2020-057R","ELEMENT_SET_NO":"999","ECCENTRICITY":"0.00017300","TIME_SYSTEM":"UTC","TLE_LINE1":"1 46132U 20057R   22158.81104794  .00000247  00000-0  35492-4 0  9992","ARG_OF_PERICENTER":"67.8549","CENTER_NAME":"EARTH","DECAY_DATE":null,"PERIOD":"95.592","NORAD_CAT_ID":"46132","INCLINATION":"53.0566","TLE_LINE2":"2 46132  53.0566 350.7431 0001730  67.8549 292.2624 15.06401525100700","SEMIMAJOR_AXIS":"6925.344","LAUNCH_DATE":"2020-08-18","EPHEMERIS_TYPE":"0","APOAPSIS":"548.407","MEAN_ANOMALY":"292.2624","BSTAR":"0.00003549200000","CLASSIFICATION_TYPE":"U","MEAN_MOTION_DOT":"0.00000247","REV_AT_EPOCH":"10070","REF_FRAME":"TEME","COUNTRY_CODE":"US","MEAN_MOTION":"15.06401525","PERIAPSIS":"546.011"},{"ARG_OF_PERICENTER":"104.0292","TLE_LINE1":"1 46133U 20057S   22158.81105230 -.00000223  00000-0  39492-5 0  9999","CENTER_NAME":"EARTH","DECAY_DATE":null,"NORAD_CAT_ID":"46133","PERIOD":"95.592","INCLINATION":"53.0573","SEMIMAJOR_AXIS":"6925.319","LAUNCH_DATE":"2020-08-18","EPHEMERIS_TYPE":"0","TLE_LINE2":"2 46133  53.0573 310.7271 0001318 104.0292 256.0843 15.06409486101254","APOAPSIS":"548.097","REV_AT_EPOCH":"10125","MEAN_MOTION_DOT":"-0.00000223","MEAN_ANOMALY":"256.0843","BSTAR":"0.00000394920000","CLASSIFICATION_TYPE":"U","COUNTRY_CODE":"US","REF_FRAME":"TEME","MEAN_MOTION":"15.06409486","PERIAPSIS":"546.272","EPOCH":"2022-06-07T19:27:54.918720","MEAN_ELEMENT_THEORY":"SGP4","RA_OF_ASC_NODE":"310.7271","OBJECT_NAME":"STARLINK-1637","SITE":"AFETR","OBJECT_TYPE":"PAYLOAD","GP_ID":"205593233","FILE":"3485136","RCS_SIZE":"LARGE","MEAN_MOTION_DDOT":"0.0000000000000","OBJECT_ID":"2020-057S","ECCENTRICITY":"0.00013180","ELEMENT_SET_NO":"999","TIME_SYSTEM":"UTC"},{"RA_OF_ASC_NODE":"310.7088","MEAN_ELEMENT_THEORY":"SGP4","EPOCH":"2022-06-07T19:33:13.030560","OBJECT_TYPE":"PAYLOAD","SITE":"AFETR","OBJECT_NAME":"STARLINK-1638","GP_ID":"205591988","FILE":"3485136","RCS_SIZE":"LARGE","OBJECT_ID":"2020-057T","MEAN_MOTION_DDOT":"0.0000000000000","ECCENTRICITY":"0.00013130","ELEMENT_SET_NO":"999","TIME_SYSTEM":"UTC","CENTER_NAME":"EARTH","ARG_OF_PERICENTER":"78.5222","TLE_LINE1":"1 46134U 20057T   22158.81473415  .00002824  00000-0  20836-3 0  9991","PERIOD":"95.592","NORAD_CAT_ID":"46134","DECAY_DATE":null,"INCLINATION":"53.0570","TLE_LINE2":"2 46134  53.0570 310.7088 0001313  78.5222 281.5914 15.06409786100008","LAUNCH_DATE":"2020-08-18","SEMIMAJOR_AXIS":"6925.319","EPHEMERIS_TYPE":"0","CLASSIFICATION_TYPE":"U","BSTAR":"0.00020836000000","MEAN_ANOMALY":"281.5914","REV_AT_EPOCH":"10000","MEAN_MOTION_DOT":"0.00002824","APOAPSIS":"548.093","MEAN_MOTION":"15.06409786","REF_FRAME":"TEME","COUNTRY_CODE":"US","PERIAPSIS":"546.274"},{"MEAN_ELEMENT_THEORY":"SGP4","RA_OF_ASC_NODE":"310.6482","EPOCH":"2022-06-07T19:54:26.212320","OBJECT_NAME":"STARLINK-1639","OBJECT_TYPE":"PAYLOAD","SITE":"AFETR","GP_ID":"205592238","FILE":"3485136","RCS_SIZE":"LARGE","OBJECT_ID":"2020-057U","MEAN_MOTION_DDOT":"0.0000000000000","ELEMENT_SET_NO":"999","ECCENTRICITY":"0.00014500","TIME_SYSTEM":"UTC","CENTER_NAME":"EARTH","TLE_LINE1":"1 46135U 20057U   22158.82947005  .00001092  00000-0  92211-4 0  9997","ARG_OF_PERICENTER":"64.8180","NORAD_CAT_ID":"46135","PERIOD":"95.592","DECAY_DATE":null,"INCLINATION":"53.0551","EPHEMERIS_TYPE":"0","LAUNCH_DATE":"2020-08-18","SEMIMAJOR_AXIS":"6925.328","TLE_LINE2":"2 46135  53.0551 310.6482 0001450  64.8180 295.2959 15.06406607100008","MEAN_MOTION_DOT":"0.00001092","REV_AT_EPOCH":"10000","CLASSIFICATION_TYPE":"U","BSTAR":"0.00009221100000","MEAN_ANOMALY":"295.2959","APOAPSIS":"548.197","MEAN_MOTION":"15.06406607","COUNTRY_CODE":"US","REF_FRAME":"TEME","PERIAPSIS":"546.189"},{"CENTER_NAME":"EARTH","ARG_OF_PERICENTER":"75.6944","TLE_LINE1":"1 46136U 20057V   22158.87831034  .00001571  00000-0  12434-3 0  9997","NORAD_CAT_ID":"46136","PERIOD":"95.592","DECAY_DATE":null,"INCLINATION":"53.0555","LAUNCH_DATE":"2020-08-18","EPHEMERIS_TYPE":"0","SEMIMAJOR_AXIS":"6925.332","TLE_LINE2":"2 46136  53.0555 340.4227 0001660  75.6944 284.4229 15.06405395 99596","MEAN_MOTION_DOT":"0.00001571","REV_AT_EPOCH":"9959","BSTAR":"0.00012434000000","CLASSIFICATION_TYPE":"U","MEAN_ANOMALY":"284.4229","APOAPSIS":"548.347","MEAN_MOTION":"15.06405395","COUNTRY_CODE":"US","REF_FRAME":"TEME","PERIAPSIS":"546.047","MEAN_ELEMENT_THEORY":"SGP4","RA_OF_ASC_NODE":"340.4227","EPOCH":"2022-06-07T21:04:46.013376","OBJECT_NAME":"STARLINK-1643","SITE":"AFETR","OBJECT_TYPE":"PAYLOAD","GP_ID":"205592988","FILE":"3485136","RCS_SIZE":"LARGE","OBJECT_ID":"2020-057V","MEAN_MOTION_DDOT":"0.0000000000000","ELEMENT_SET_NO":"999","ECCENTRICITY":"0.00016600","TIME_SYSTEM":"UTC"}];
